[{"OBJECT_NAME":"STARLINK-5174","OBJECT_ID":"2022-136S","EPOCH":"2026-03-09T22:21:06.260544","MEAN_MOTION":15.08838744,"ECCENTRICITY":0.00015385,"INCLINATION":53.2217,"RA_OF_ASC_NODE":342.8142,"ARG_OF_PERICENTER":100.5799,"MEAN_ANOMALY":259.5367,"EPHEMERIS_TYPE":0,"CLASSIFICATION_TYPE":"U","NORAD_CAT_ID":54067,"ELEMENT_SET_NO":999,"REV_AT_EPOCH":18688,"BSTAR":-8.5622133e-5,"MEAN_MOTION_DOT":-1.65e-5,"MEAN_MOTION_DDOT":0},{"OBJECT_NAME":"CZ-6A DEB","OBJECT_ID":"2022-151AEC","EPOCH":"2026-03-09T16:07:43.414464","MEAN_MOTION":15.01082395,"ECCENTRICITY":0.0040922,"INCLINATION":98.632,"RA_OF_ASC_NODE":144.2747,"ARG_OF_PERICENTER":190.1613,"MEAN_ANOMALY":169.8786,"EPHEMERIS_TYPE":0,"CLASSIFICATION_TYPE":"U","NORAD_CAT_ID":56604,"ELEMENT_SET_NO":999,"REV_AT_EPOCH":16341,"BSTAR":0.005850488,"MEAN_MOTION_DOT":0.00076879,"MEAN_MOTION_DDOT":0}]
